[
    {
        "Altitude(m)": 554715.9979203169,
        "Argument of Periapsis(deg)": 0.019868973332140504,
        "Eccentricity": 0.0,
        "Inclination(deg)": 53.0,
        "Latitude(deg)": 27.896182242326326,
        "Longitude(deg)": -149.0058605404705,
        "Mean Anomaly(deg)": 35.72937860273272,
        "RAAN(deg)": 289.97043010558406,
        "Satellite Name": "Starlink Shell 1 1276",
        "Satellite Number": 1276,
        "Semi-Major Axis(m)": 6931778.249405717,
        "Time(s)": 570
    },
    {
        "Altitude(m)": 554784.4385871644,
        "Argument of Periapsis(deg)": 0.02021755181165174,
        "Eccentricity": 0.0,
        "Inclination(deg)": 53.0,
        "Latitude(deg)": 28.357074121244256,
        "Longitude(deg)": -148.5634533150228,
        "Mean Anomaly(deg)": 36.35620980628947,
        "RAAN(deg)": 289.9699113355066,
        "Satellite Name": "Starlink Shell 1 1276",
        "Satellite Number": 1276,
        "Semi-Major Axis(m)": 6931778.249405717,
        "Time(s)": 580
    },
    {
        "Altitude(m)": 554854.1325880822,
        "Argument of Periapsis(deg)": 0.020566130291162974,
        "Eccentricity": 0.0,
        "Inclination(deg)": 53.0,
        "Latitude(deg)": 28.816204829979043,
        "Longitude(deg)": -148.1168612622831,
        "Mean Anomaly(deg)": 36.98304100984621,
        "RAAN(deg)": 289.9693925654292,
        "Satellite Name": "Starlink Shell 1 1276",
        "Satellite Number": 1276,
        "Semi-Major Axis(m)": 6931778.249405717,
        "Time(s)": 590
    },
    {
        "Altitude(m)": 554925.0274064605,
        "Argument of Periapsis(deg)": 0.020914708770674213,
        "Eccentricity": 0.0,
        "Inclination(deg)": 53.0,
        "Latitude(deg)": 29.273525690968494,
        "Longitude(deg)": -147.66598337064278,
        "Mean Anomaly(deg)": 37.60987221340291,
        "RAAN(deg)": 289.96887379535167,
        "Satellite Name": "Starlink Shell 1 1276",
        "Satellite Number": 1276,
        "Semi-Major Axis(m)": 6931778.249405717,
        "Time(s)": 600
    },
    {
        "Altitude(m)": 554997.0701121211,
        "Argument of Periapsis(deg)": 0.021263287250185448,
        "Eccentricity": 0.0,
        "Inclination(deg)": 53.0,
        "Latitude(deg)": 29.72898693968215,
        "Longitude(deg)": -147.21071730934062,
        "Mean Anomaly(deg)": 38.2367034169596,
        "RAAN(deg)": 289.96835502527415,
        "Satellite Name": "Starlink Shell 1 1276",
        "Satellite Number": 1276,
        "Semi-Major Axis(m)": 6931778.249405717,
        "Time(s)": 610
    },
    {
        "Altitude(m)": 555070.207389348,
        "Argument of Periapsis(deg)": 0.021611865729696686,
        "Eccentricity": 0.0,
        "Inclination(deg)": 53.0,
        "Latitude(deg)": 30.182537693677364,
        "Longitude(deg)": -146.75095893102832,
        "Mean Anomaly(deg)": 38.8635346205163,
        "RAAN(deg)": 289.96783625519674,
        "Satellite Name": "Starlink Shell 1 1276",
        "Satellite Number": 1276,
        "Semi-Major Axis(m)": 6931778.249405717,
        "Time(s)": 620
    },
    {
        "Altitude(m)": 555144.3855650581,
        "Argument of Periapsis(deg)": 0.02196044420920792,
        "Eccentricity": 0.0,
        "Inclination(deg)": 53.0,
        "Latitude(deg)": 30.634125921257034,
        "Longitude(deg)": -146.28660345893016,
        "Mean Anomaly(deg)": 39.490365824073045,
        "RAAN(deg)": 289.9673174851193,
        "Satellite Name": "Starlink Shell 1 1276",
        "Satellite Number": 1276,
        "Semi-Major Axis(m)": 6931778.249405717,
        "Time(s)": 630
    },
    {
        "Altitude(m)": 555219.5506370979,
        "Argument of Periapsis(deg)": 0.02230902268871916,
        "Eccentricity": 0.0,
        "Inclination(deg)": 53.0,
        "Latitude(deg)": 31.08369840975389,
        "Longitude(deg)": -145.81754415647393,
        "Mean Anomaly(deg)": 40.11719702762979,
        "RAAN(deg)": 289.96679871504176,
        "Satellite Name": "Starlink Shell 1 1276",
        "Satellite Number": 1276,
        "Semi-Major Axis(m)": 6931778.249405717,
        "Time(s)": 640
    },
    {
        "Altitude(m)": 555295.6483026772,
        "Argument of Periapsis(deg)": 0.022657601168230398,
        "Eccentricity": 0.0,
        "Inclination(deg)": 53.0,
        "Latitude(deg)": 31.531200733486347,
        "Longitude(deg)": -145.3436735226176,
        "Mean Anomaly(deg)": 40.74402823118649,
        "RAAN(deg)": 289.9662799449643,
        "Satellite Name": "Starlink Shell 1 1276",
        "Satellite Number": 1276,
        "Semi-Major Axis(m)": 6931778.249405717,
        "Time(s)": 650
    },
    {
        "Altitude(m)": 555372.6239868881,
        "Argument of Periapsis(deg)": 0.023006179647741636,
        "Eccentricity": 0.0,
        "Inclination(deg)": 53.0,
        "Latitude(deg)": 31.976577221420886,
        "Longitude(deg)": -144.86488281078232,
        "Mean Anomaly(deg)": 41.37085943474318,
        "RAAN(deg)": 289.96576117488684,
        "Satellite Name": "Starlink Shell 1 1276",
        "Satellite Number": 1276,
        "Semi-Major Axis(m)": 6931778.249405717,
        "Time(s)": 660
    },
    {
        "Altitude(m)": 555450.4228713175,
        "Argument of Periapsis(deg)": 0.023354758127252868,
        "Eccentricity": 0.0,
        "Inclination(deg)": 53.0,
        "Latitude(deg)": 32.41977092459146,
        "Longitude(deg)": -144.38106155271532,
        "Mean Anomaly(deg)": 41.99769063829988,
        "RAAN(deg)": 289.9652424048093,
        "Satellite Name": "Starlink Shell 1 1276",
        "Satellite Number": 1276,
        "Semi-Major Axis(m)": 6931778.249405717,
        "Time(s)": 670
    },
    {
        "Altitude(m)": 555528.9899227467,
        "Argument of Periapsis(deg)": 0.023703336606764106,
        "Eccentricity": 0.0,
        "Inclination(deg)": 53.0,
        "Latitude(deg)": 32.86072358333185,
        "Longitude(deg)": -143.89209860052955,
        "Mean Anomaly(deg)": 42.62452184185663,
        "RAAN(deg)": 289.9647236347319,
        "Satellite Name": "Starlink Shell 1 1276",
        "Satellite Number": 1276,
        "Semi-Major Axis(m)": 6931778.249405717,
        "Time(s)": 680
    },
    {
        "Altitude(m)": 555608.2699218987,
        "Argument of Periapsis(deg)": 0.024051915086275345,
        "Eccentricity": 0.0,
        "Inclination(deg)": 53.0,
        "Latitude(deg)": 33.299375594375775,
        "Longitude(deg)": -143.3978816615676,
        "Mean Anomaly(deg)": 43.251353045413374,
        "RAAN(deg)": 289.9642048646544,
        "Satellite Name": "Starlink Shell 1 1276",
        "Satellite Number": 1276,
        "Semi-Major Axis(m)": 6931778.249405717,
        "Time(s)": 690
    },
    {
        "Altitude(m)": 555688.2074922309,
        "Argument of Periapsis(deg)": 0.024400493565786583,
        "Eccentricity": 0.0,
        "Inclination(deg)": 53.0,
        "Latitude(deg)": 33.735665977894826,
        "Longitude(deg)": -142.8982968393759,
        "Mean Anomaly(deg)": 43.87818424897007,
        "RAAN(deg)": 289.96368609457693,
        "Satellite Name": "Starlink Shell 1 1276",
        "Satellite Number": 1276,
        "Semi-Major Axis(m)": 6931778.249405717,
        "Time(s)": 700
    },
    {
        "Altitude(m)": 555768.7471287716,
        "Argument of Periapsis(deg)": 0.024749072045297815,
        "Eccentricity": 0.0,
        "Inclination(deg)": 53.0,
        "Latitude(deg)": 34.169532344550205,
        "Longitude(deg)": -142.39322969409753,
        "Mean Anomaly(deg)": 44.50501545252676,
        "RAAN(deg)": 289.9631673244995,
        "Satellite Name": "Starlink Shell 1 1276",
        "Satellite Number": 1276,
        "Semi-Major Axis(m)": 6931778.249405717,
        "Time(s)": 710
    },
    {
        "Altitude(m)": 555849.8332269517,
        "Argument of Periapsis(deg)": 0.025097650524809053,
        "Eccentricity": 0.0,
        "Inclination(deg)": 53.0,
        "Latitude(deg)": 34.600910862636795,
        "Longitude(deg)": -141.88256479699035,
        "Mean Anomaly(deg)": 45.13184665608346,
        "RAAN(deg)": 289.962648554422,
        "Satellite Name": "Starlink Shell 1 1276",
        "Satellite Number": 1276,
        "Semi-Major Axis(m)": 6931778.249405717,
        "Time(s)": 720
    },
    {
        "Altitude(m)": 555931.4101114622,
        "Argument of Periapsis(deg)": 0.02544622900432029,
        "Eccentricity": 0.0,
        "Inclination(deg)": 53.0,
        "Latitude(deg)": 35.02973622541169,
        "Longitude(deg)": -141.36618529242023,
        "Mean Anomaly(deg)": 45.75867785964021,
        "RAAN(deg)": 289.9621297843445,
        "Satellite Name": "Starlink Shell 1 1276",
        "Satellite Number": 1276,
        "Semi-Major Axis(m)": 6931778.249405717,
        "Time(s)": 730
    },
    {
        "Altitude(m)": 556013.422065095,
        "Argument of Periapsis(deg)": 0.02579480748383153,
        "Eccentricity": 0.0,
        "Inclination(deg)": 53.0,
        "Latitude(deg)": 35.4559416187111,
        "Longitude(deg)": -140.84397398069453,
        "Mean Anomaly(deg)": 46.385509063196956,
        "RAAN(deg)": 289.9616110142671,
        "Satellite Name": "Starlink Shell 1 1276",
        "Satellite Number": 1276,
        "Semi-Major Axis(m)": 6931778.249405717,
        "Time(s)": 740
    },
    {
        "Altitude(m)": 556095.8133575423,
        "Argument of Periapsis(deg)": 0.026143385963342765,
        "Eccentricity": 0.0,
        "Inclination(deg)": 53.0,
        "Latitude(deg)": 35.87945868895916,
        "Longitude(deg)": -140.31581289650717,
        "Mean Anomaly(deg)": 47.0123402667536,
        "RAAN(deg)": 289.96109224418956,
        "Satellite Name": "Starlink Shell 1 1276",
        "Satellite Number": 1276,
        "Semi-Major Axis(m)": 6931778.249405717,
        "Time(s)": 750
    }
]